{
  "type": "FeatureCollection",
  "features": [
    {
      "type": "Feature",
      "properties": {
        "norad_id": 31542,
        "name": "FENGYUN 1C DEB",
        "group": "fengyun-1c-debris",
        "lat": 7.501086743845286,
        "lon": 31.240105458656924,
        "alt_km": 842.6267110842546,
        "timestamp": "2025-12-04T07:39:36.417753+00:00",
        "meta_object_name": "FENGYUN 1C DEB",
        "meta_object_id": "1999-025BYH",
        "meta_epoch": "2025-12-03T09:40:54.808032",
        "meta_mean_motion": 14.22707013,
        "meta_eccentricity": 0.00469964,
        "meta_inclination": 98.7328,
        "meta_ra_of_asc_node": 31.4922,
        "meta_arg_of_pericenter": 233.6112,
        "meta_mean_anomaly": 126.0727,
        "meta_ephemeris_type": 0,
        "meta_classification_type": "U",
        "meta_norad_cat_id": 31542,
        "meta_element_set_no": 999,
        "meta_rev_at_epoch": 95807,
        "meta_bstar": 0.0018139481,
        "meta_mean_motion_dot": 4.066e-05,
        "meta_mean_motion_ddot": 0,
        "tle_line1": "1 31542U 99025BYH 25337.40341213  .00004066  00000+0  18139-2 0  9997",
        "tle_line2": "2 31542  98.7328  31.4922 0046996 233.6112 126.0727 14.22707013958078"
      },
      "geometry": {
        "type": "Point",
        "coordinates": [
          31.240105458656924,
          7.501086743845286
        ]
      }
    },
    {
      "type": "Feature",
      "properties": {
        "norad_id": 31544,
        "name": "FENGYUN 1C DEB",
        "group": "fengyun-1c-debris",
        "lat": -6.459398637776191,
        "lon": 30.68983918945113,
        "alt_km": 836.9977624646608,
        "timestamp": "2025-12-04T07:39:36.417762+00:00",
        "meta_object_name": "FENGYUN 1C DEB",
        "meta_object_id": "1999-025BYK",
        "meta_epoch": "2025-12-03T09:37:05.243232",
        "meta_mean_motion": 14.14294578,
        "meta_eccentricity": 0.00314365,
        "meta_inclination": 98.8302,
        "meta_ra_of_asc_node": 28.7738,
        "meta_arg_of_pericenter": 296.1937,
        "meta_mean_anomaly": 63.6004,
        "meta_ephemeris_type": 0,
        "meta_classification_type": "U",
        "meta_norad_cat_id": 31544,
        "meta_element_set_no": 999,
        "meta_rev_at_epoch": 95625,
        "meta_bstar": 0.00098490228,
        "meta_mean_motion_dot": 1.846e-05,
        "meta_mean_motion_ddot": 0,
        "tle_line1": "1 31544U 99025BYK 25337.40075513  .00001846  00000+0  98490-3 0  9998",
        "tle_line2": "2 31544  98.8302  28.7738 0031436 296.1937  63.6004 14.14294578956259"
      },
      "geometry": {
        "type": "Point",
        "coordinates": [
          30.68983918945113,
          -6.459398637776191
        ]
      }
    },
    {
      "type": "Feature",
      "properties": {
        "norad_id": 31546,
        "name": "FENGYUN 1C DEB",
        "group": "fengyun-1c-debris",
        "lat": -16.836184699048527,
        "lon": -134.0253933319297,
        "alt_km": 767.4756341047869,
        "timestamp": "2025-12-04T07:39:36.417771+00:00",
        "meta_object_name": "FENGYUN 1C DEB",
        "meta_object_id": "1999-025BYM",
        "meta_epoch": "2025-12-03T03:32:47.646816",
        "meta_mean_motion": 14.13006141,
        "meta_eccentricity": 0.01469092,
        "meta_inclination": 98.2452,
        "meta_ra_of_asc_node": 47.4098,
        "meta_arg_of_pericenter": 164.2591,
        "meta_mean_anomaly": 196.3223,
        "meta_ephemeris_type": 0,
        "meta_classification_type": "U",
        "meta_norad_cat_id": 31546,
        "meta_element_set_no": 999,
        "meta_rev_at_epoch": 94653,
        "meta_bstar": 0.002714583,
        "meta_mean_motion_dot": 5.574e-05,
        "meta_mean_motion_ddot": 0,
        "tle_line1": "1 31546U 99025BYM 25337.14777369  .00005574  00000+0  27146-2 0  9990",
        "tle_line2": "2 31546  98.2452  47.4098 0146909 164.2591 196.3223 14.13006141946534"
      },
      "geometry": {
        "type": "Point",
        "coordinates": [
          -134.0253933319297,
          -16.836184699048527
        ]
      }
    },
    {
      "type": "Feature",
      "properties": {
        "norad_id": 31547,
        "name": "FENGYUN 1C DEB",
        "group": "fengyun-1c-debris",
        "lat": 22.71932661011069,
        "lon": 17.977908347002536,
        "alt_km": 824.9384251977353,
        "timestamp": "2025-12-04T07:39:36.417799+00:00",
        "meta_object_name": "FENGYUN 1C DEB",
        "meta_object_id": "1999-025BYN",
        "meta_epoch": "2025-12-02T08:18:10.667520",
        "meta_mean_motion": 14.23031642,
        "meta_eccentricity": 0.00531782,
        "meta_inclination": 99.0877,
        "meta_ra_of_asc_node": 19.785,
        "meta_arg_of_pericenter": 282.8408,
        "meta_mean_anomaly": 76.6831,
        "meta_ephemeris_type": 0,
        "meta_classification_type": "U",
        "meta_norad_cat_id": 31547,
        "meta_element_set_no": 999,
        "meta_rev_at_epoch": 63869,
        "meta_bstar": 0.0017799919,
        "meta_mean_motion_dot": 4.024e-05,
        "meta_mean_motion_ddot": 0,
        "tle_line1": "1 31547U 99025BYN 25336.34595680  .00004024  00000+0  17800-2 0  9991",
        "tle_line2": "2 31547  99.0877  19.7850 0053178 282.8408  76.6831 14.23031642638697"
      },
      "geometry": {
        "type": "Point",
        "coordinates": [
          17.977908347002536,
          22.71932661011069
        ]
      }
    },
    {
      "type": "Feature",
      "properties": {
        "norad_id": 31550,
        "name": "FENGYUN 1C DEB",
        "group": "fengyun-1c-debris",
        "lat": 44.319229198239555,
        "lon": -30.188203596048414,
        "alt_km": 790.7929197479607,
        "timestamp": "2025-12-04T07:39:36.417807+00:00",
        "meta_object_name": "FENGYUN 1C DEB",
        "meta_object_id": "1999-025BYR",
        "meta_epoch": "2025-12-03T06:26:27.249216",
        "meta_mean_motion": 14.40110958,
        "meta_eccentricity": 0.0190544,
        "meta_inclination": 98.3109,
        "meta_ra_of_asc_node": 336.9976,
        "meta_arg_of_pericenter": 301.5534,
        "meta_mean_anomaly": 56.717,
        "meta_ephemeris_type": 0,
        "meta_classification_type": "U",
        "meta_norad_cat_id": 31550,
        "meta_element_set_no": 999,
        "meta_rev_at_epoch": 65318,
        "meta_bstar": 0.0012757,
        "meta_mean_motion_dot": 4.941e-05,
        "meta_mean_motion_ddot": 0,
        "tle_line1": "1 31550U 99025BYR 25337.26837094  .00004941  00000+0  12757-2 0  9999",
        "tle_line2": "2 31550  98.3109 336.9976 0190544 301.5534  56.7170 14.40110958653185"
      },
      "geometry": {
        "type": "Point",
        "coordinates": [
          -30.188203596048414,
          44.319229198239555
        ]
      }
    },
    {
      "type": "Feature",
      "properties": {
        "norad_id": 31552,
        "name": "FENGYUN 1C DEB",
        "group": "fengyun-1c-debris",
        "lat": -31.30906536927568,
        "lon": -85.25577973717584,
        "alt_km": 805.9870059776167,
        "timestamp": "2025-12-04T07:39:36.417817+00:00",
        "meta_object_name": "FENGYUN 1C DEB",
        "meta_object_id": "1999-025BYT",
        "meta_epoch": "2025-11-30T14:37:50.555424",
        "meta_mean_motion": 14.45288601,
        "meta_eccentricity": 0.0086373,
        "meta_inclination": 98.621,
        "meta_ra_of_asc_node": 96.2726,
        "meta_arg_of_pericenter": 58.268,
        "meta_mean_anomaly": 302.6892,
        "meta_ephemeris_type": 0,
        "meta_classification_type": "U",
        "meta_norad_cat_id": 31552,
        "meta_element_set_no": 999,
        "meta_rev_at_epoch": 95701,
        "meta_bstar": 0.00311,
        "meta_mean_motion_dot": 0.00011399,
        "meta_mean_motion_ddot": 0,
        "tle_line1": "1 31552U 99025BYT 25334.60961291  .00011399  00000+0  31100-2 0  9991",
        "tle_line2": "2 31552  98.6210  96.2726 0086373  58.2680 302.6892 14.45288601957013"
      },
      "geometry": {
        "type": "Point",
        "coordinates": [
          -85.25577973717584,
          -31.30906536927568
        ]
      }
    },
    {
      "type": "Feature",
      "properties": {
        "norad_id": 31553,
        "name": "FENGYUN 1C DEB",
        "group": "fengyun-1c-debris",
        "lat": -47.32124913738006,
        "lon": -157.11799573165663,
        "alt_km": 802.9465322630203,
        "timestamp": "2025-12-04T07:39:36.417826+00:00",
        "meta_object_name": "FENGYUN 1C DEB",
        "meta_object_id": "1999-025BYU",
        "meta_epoch": "2025-12-03T02:11:38.808096",
        "meta_mean_motion": 14.30020228,
        "meta_eccentricity": 0.00309779,
        "meta_inclination": 99.0052,
        "meta_ra_of_asc_node": 31.5154,
        "meta_arg_of_pericenter": 129.5445,
        "meta_mean_anomaly": 261.1133,
        "meta_ephemeris_type": 0,
        "meta_classification_type": "U",
        "meta_norad_cat_id": 31553,
        "meta_element_set_no": 999,
        "meta_rev_at_epoch": 95772,
        "meta_bstar": 0.0021193082,
        "meta_mean_motion_dot": 5.455e-05,
        "meta_mean_motion_ddot": 0,
        "tle_line1": "1 31553U 99025BYU 25337.09142139  .00005455  00000+0  21193-2 0  9997",
        "tle_line2": "2 31553  99.0052  31.5154 0030977 129.5445 261.1133 14.30020228957728"
      },
      "geometry": {
        "type": "Point",
        "coordinates": [
          -157.11799573165663,
          -47.32124913738006
        ]
      }
    }
  ]
}